NORAD_CAT_ID,OBJECT_NAME,OBJECT_TYPE,EPOCH,MEAN_MOTION,ECCENTRICITY,INCLINATION,RA_OF_ASC_NODE,ARG_OF_PERICENTER,MEAN_ANOMALY,BSTAR,MEAN_MOTION_DOT,MEAN_MOTION_DDOT,TLE_LINE0,TLE_LINE1,TLE_LINE2,SEMIMAJOR_AXIS,PERIOD,APOGEE,PERIGEE,DECAYED
53260.0,STARLINK-4136,PAYLOAD,2023-09-25 09:20:48,15.0884698,0.0001566,53.2164,257.7687,92.8672,267.25,0.00019898,2.881e-05,0.0,0 STARLINK-4136,1 53260U 22086U   23268.38945440  .00002881  00000-0  19898-3 0  9999,2 53260  53.2164 257.7687 0001566  92.8672 267.2500 15.08846980 65757,6917.859,95.437,540.807,538.641,0.0
53260.0,STARLINK-4136,PAYLOAD,2023-09-25 18:53:07,15.08841968,0.0001364,53.2151,255.9839,92.0973,268.0175,0.00018336,2.632e-05,0.0,0 STARLINK-4136,1 53260U 22086U   23268.78689612  .00002632  00000-0  18336-3 0  9999,2 53260  53.2151 255.9839 0001364  92.0973 268.0175 15.08841968 65819,6917.874,95.437,540.683,538.796,0.0
53260.0,STARLINK-4136,PAYLOAD,2023-09-26 02:50:03,15.08840709,0.000136,53.215,254.4969,91.4824,268.6324,0.00013199,1.813e-05,0.0,0 STARLINK-4136,1 53260U 22086U   23269.11809656  .00001813  00000-0  13199-3 0  9991,2 53260  53.2150 254.4969 0001360  91.4824 268.6324 15.08840709 65689,6917.878,95.438,540.684,538.802,0.0
53260.0,STARLINK-4136,PAYLOAD,2023-09-26 09:11:35,15.08846802,0.0001314,53.2148,253.3064,88.9281,271.1862,0.00012187,1.653e-05,0.0,0 STARLINK-4136,1 53260U 22086U   23269.38305201  .00001653  00000-0  12187-3 0  9995,2 53260  53.2148 253.3064 0001314  88.9281 271.1862 15.08846802 65908,6917.86,95.437,540.634,538.816,0.0
53260.0,STARLINK-4136,PAYLOAD,2023-09-27 05:51:36,15.08840593,0.0001343,53.2151,249.4421,85.2916,274.8229,7.7285e-06,-1.65e-06,0.0,0 STARLINK-4136,1 53260U 22086U   23270.24417614 -.00000165  00000-0  77285-5 0  9994,2 53260  53.2151 249.4421 0001343  85.2916 274.8229 15.08840593 65854,6917.879,95.438,540.673,538.815,0.0
53260.0,STARLINK-4136,PAYLOAD,2023-09-27 15:23:55,15.08833202,0.0001366,53.2155,247.6588,89.0713,271.0435,-0.00012765,-2.319e-05,0.0,0 STARLINK-4136,1 53260U 22086U   23270.64162028 -.00002319  00000-0 -12765-3 0  9998,2 53260  53.2155 247.6588 0001366  89.0713 271.0435 15.08833202 65918,6917.901,95.438,540.711,538.821,0.0
53260.0,STARLINK-4136,PAYLOAD,2023-09-28 08:53:10,15.08842819,0.000144,53.217,244.3896,105.4947,254.6204,8.3899e-06,-1.54e-06,0.0,0 STARLINK-4136,1 53260U 22086U   23271.37026229 -.00000154  00000-0  83899-5 0  9993,2 53260  53.2170 244.3896 0001440 105.4947 254.6204 15.08842819 66204,6917.872,95.437,540.733,538.741,0.0
53260.0,STARLINK-4136,PAYLOAD,2023-09-29 07:08:34,15.08841179,0.0001408,53.2172,240.2245,97.4934,262.6218,0.00013669,1.888e-05,0.0,0 STARLINK-4136,1 53260U 22086U   23272.29762491  .00001888  00000-0  13669-3 0  9993,2 53260  53.2172 240.2245 0001408  97.4934 262.6218 15.08841179 66346,6917.877,95.437,540.716,538.768,0.0
53260.0,STARLINK-4136,PAYLOAD,2023-09-30 03:48:35,15.08854505,0.0001464,53.2167,236.3566,94.1772,265.9388,0.0003153,4.736e-05,0.0,0 STARLINK-4136,1 53260U 22086U   23273.15873847  .00004736  00000-0  31530-3 0  9999,2 53260  53.2167 236.3566 0001464  94.1772 265.9388 15.08854505 66293,6917.836,95.437,540.714,538.688,0.0
53260.0,STARLINK-4136,PAYLOAD,2023-09-30 05:23:57,15.08857973,0.000146,53.2168,236.0592,93.7112,266.4047,0.00036663,5.555e-05,0.0,0 STARLINK-4136,1 53260U 22086U   23273.22497675  .00005555  00000-0  36663-3 0  9990,2 53260  53.2168 236.0592 0001460  93.7112 266.4047 15.08857973 66480,6917.825,95.436,540.7,538.68,0.0
53260.0,STARLINK-4136,PAYLOAD,2023-09-30 14:56:17,15.0884263,0.0001633,53.2173,234.2748,85.6883,274.4296,7.7248e-05,9.42e-06,0.0,0 STARLINK-4136,1 53260U 22086U   23273.62242371  .00000942  00000-0  77248-4 0  9995,2 53260  53.2173 234.2748 0001633  85.6883 274.4296 15.08842630 66362,6917.872,95.437,540.867,538.608,0.0
53260.0,STARLINK-4136,PAYLOAD,2023-10-01 03:39:22,15.08840208,0.0001067,53.2172,231.8962,85.9046,274.2068,6.1246e-05,6.87e-06,0.0,0 STARLINK-4136,1 53260U 22086U   23274.15234501  .00000687  00000-0  61246-4 0  9997,2 53260  53.2172 231.8962 0001067  85.9046 274.2068 15.08840208 66620,6917.88,95.438,540.483,539.007,0.0
53260.0,STARLINK-4136,PAYLOAD,2023-10-01 21:08:37,15.08841663,0.000161,53.2172,228.6272,91.8812,268.2365,0.00017714,2.532e-05,0.0,0 STARLINK-4136,1 53260U 22086U   23274.88098634  .00002532  00000-0  17714-3 0  9993,2 53260  53.2172 228.6272 0001610  91.8812 268.2365 15.08841663 66730,6917.875,95.437,540.854,538.627,0.0
53260.0,STARLINK-4136,PAYLOAD,2023-10-02 03:30:09,15.08848307,0.0001461,53.2169,227.4372,95.3555,264.7604,0.00037402,5.671e-05,0.0,0 STARLINK-4136,1 53260U 22086U   23275.14594470  .00005671  00000-0  37402-3 0  9995,2 53260  53.2169 227.4372 0001461  95.3555 264.7604 15.08848307 66594,6917.855,95.437,540.731,538.709,0.0
53260.0,STARLINK-4136,PAYLOAD,2023-10-02 06:40:55,15.08854168,0.0001497,53.2166,226.8407,97.1888,262.9275,0.00054861,8.457e-05,0.0,0 STARLINK-4136,1 53260U 22086U   23275.27842297  .00008457  00000-0  54861-3 0  9995,2 53260  53.2166 226.8407 0001497  97.1888 262.9275 15.08854168 66799,6917.837,95.437,540.738,538.666,0.0
53260.0,STARLINK-4136,PAYLOAD,2023-10-03 03:20:56,15.088585,0.0001314,53.2164,222.9765,103.1476,256.9662,0.00062751,9.718e-05,0.0,0 STARLINK-4136,1 53260U 22086U   23276.13954215  .00009718  00000-0  62751-3 0  9993,2 53260  53.2164 222.9765 0001314 103.1476 256.9662 15.08858500 66742,6917.824,95.436,540.598,538.78,0.0
53260.0,STARLINK-4136,PAYLOAD,2023-10-03 06:31:42,15.08862922,0.0001313,53.2168,222.3811,105.6135,254.5002,0.00091397,0.00014297,0.0,0 STARLINK-4136,1 53260U 22086U   23276.27202055  .00014297  00000-0  91397-3 0  9992,2 53260  53.2168 222.3811 0001313 105.6135 254.5002 15.08862922 66947,6917.81,95.436,540.584,538.767,0.0
53260.0,STARLINK-4136,PAYLOAD,2023-10-03 20:50:11,15.08839558,0.0001643,53.2166,219.7055,106.4279,253.6894,0.00065897,0.00010215,0.0,0 STARLINK-4136,1 53260U 22086U   23276.86818750  .00010215  00000-0  65897-3 0  9994,2 53260  53.2166 219.7055 0001643 106.4279 253.6894 15.08839558 66857,6917.882,95.438,540.883,538.61,0.0
53260.0,STARLINK-4136,PAYLOAD,2023-10-04 12:44:02,15.08842979,0.0001216,53.2157,216.7309,97.6721,262.441,0.00066643,0.00010335,0.0,0 STARLINK-4136,1 53260U 22086U   23277.53059008  .00010335  00000-0  66643-3 0  9995,2 53260  53.2157 216.7309 0001216  97.6721 262.4410 15.08842979 67130,6917.871,95.437,540.577,538.895,0.0
53260.0,STARLINK-4136,PAYLOAD,2023-10-04 19:05:35,15.08838742,0.0001547,53.2162,215.543,105.1496,254.9667,0.00039245,5.963e-05,0.0,0 STARLINK-4136,1 53260U 22086U   23277.79555202  .00005963  00000-0  39245-3 0  9999,2 53260  53.2162 215.5430 0001547 105.1496 254.9667 15.08838742 66995,6917.884,95.438,540.819,538.679,0.0
53260.0,STARLINK-4136,PAYLOAD,2023-10-04 20:40:58,15.08840294,0.0001575,53.2162,215.2455,106.0026,254.1139,0.00030939,4.639e-05,0.0,0 STARLINK-4136,1 53260U 22086U   23277.86179141  .00004639  00000-0  30939-3 0  9991,2 53260  53.2162 215.2455 0001575 106.0026 254.1139 15.08840294 67182,6917.879,95.438,540.834,538.655,0.0
53260.0,STARLINK-4136,PAYLOAD,2023-10-05 03:02:31,15.08858081,0.0001304,53.2168,214.0591,99.6652,260.4487,0.00064807,0.00010046,0.0,0 STARLINK-4136,1 53260U 22086U   23278.12674823  .00010046  00000-0  64807-3 0  9998,2 53260  53.2168 214.0591 0001304  99.6652 260.4487 15.08858081 67042,6917.825,95.436,540.592,538.788,0.0
53260.0,STARLINK-4136,PAYLOAD,2023-10-06 02:53:18,15.08855975,0.0001376,53.215,209.6035,113.9989,246.1148,0.00063981,9.914e-05,0.0,0 STARLINK-4136,1 53260U 22086U   23279.12034776  .00009914  00000-0  63981-3 0  9990,2 53260  53.2150 209.6035 0001376 113.9989 246.1148 15.08855975 67198,6917.832,95.437,540.648,538.745,0.0
53260.0,STARLINK-4136,PAYLOAD,2023-10-06 12:25:37,15.08845858,0.0002271,53.2163,207.8136,77.1155,283.0091,0.00055193,8.508e-05,0.0,0 STARLINK-4136,1 53260U 22086U   23279.51779187  .00008508  00000-0  55193-3 0  9999,2 53260  53.2163 207.8136 0002271  77.1155 283.0091 15.08845858 67438,6917.862,95.437,541.299,538.156,0.0
53260.0,STARLINK-4136,PAYLOAD,2023-10-07 01:08:42,15.08830798,0.0001685,53.2148,205.4333,76.7814,283.3366,0.00044871,6.859e-05,0.0,0 STARLINK-4136,1 53260U 22086U   23280.04771455  .00006859  00000-0  44871-3 0  9997,2 53260  53.2148 205.4333 0001685  76.7814 283.3366 15.08830798 67333,6917.909,95.438,540.939,538.608,0.0
53260.0,STARLINK-4136,PAYLOAD,2023-10-07 12:16:24,15.08838676,0.0001514,53.2147,203.3526,90.0552,270.0613,0.00056491,8.714e-05,0.0,0 STARLINK-4136,1 53260U 22086U   23280.51139454  .00008714  00000-0  56491-3 0  9999,2 53260  53.2147 203.3526 0001514  90.0552 270.0613 15.08838676 67580,6917.884,95.438,540.797,538.702,0.0
53260.0,STARLINK-4136,PAYLOAD,2023-10-08 02:34:52,15.08852658,0.0001629,53.2162,200.675,90.5828,269.535,0.00067672,0.00010502,0.0,0 STARLINK-4136,1 53260U 22086U   23281.10755233  .00010502  00000-0  67672-3 0  9995,2 53260  53.2162 200.6750 0001629  90.5828 269.5350 15.08852658 67491,6917.842,95.437,540.834,538.58,0.0
53260.0,STARLINK-4136,PAYLOAD,2023-10-08 12:07:11,15.0883878,0.0002202,53.216,198.891,86.5837,273.5407,0.00031253,4.689e-05,0.0,0 STARLINK-4136,1 53260U 22086U   23281.50499797  .00004689  00000-0  31253-3 0  9994,2 53260  53.2160 198.8910 0002202  86.5837 273.5407 15.08838780 67733,6917.884,95.438,541.272,538.226,0.0
53260.0,STARLINK-4136,PAYLOAD,2023-10-09 02:25:39,15.08860991,0.0001448,53.2166,196.213,99.5155,260.6001,0.0010604,0.00016638,0.0,0 STARLINK-4136,1 53260U 22086U   23282.10115053  .00016638  00000-0  10604-2 0  9994,2 53260  53.2166 196.2130 0001448  99.5155 260.6001 15.08860991 67649,6917.816,95.436,540.683,538.68,0.0
53260.0,STARLINK-4136,PAYLOAD,2023-10-09 11:57:58,15.08852283,0.0001641,53.217,194.4309,95.9657,264.1522,0.00098289,0.00015395,0.0,0 STARLINK-4136,1 53260U 22086U   23282.49859327  .00015395  00000-0  98289-3 0  9990,2 53260  53.2170 194.4309 0001641  95.9657 264.1522 15.08852283 67882,6917.843,95.437,540.843,538.573,0.0
